[
  {
    "OBJECT_NAME": "STARLINK-4350",
    "OBJECT_ID": "2022-077C",
    "EPOCH": "2024-05-21T01:15:25.156800",
    "MEAN_MOTION": 15.01256825,
    "ECCENTRICITY": 0.000188,
    "INCLINATION": 97.6567,
    "RA_OF_ASC_NODE": 323.2656,
    "ARG_OF_PERICENTER": 76.6334,
    "MEAN_ANOMALY": 283.51,
    "EPHEMERIS_TYPE": 0,
    "CLASSIFICATION_TYPE": "U",
    "NORAD_CAT_ID": 53045,
    "ELEMENT_SET_NO": 999,
    "REV_AT_EPOCH": 10283,
    "BSTAR": 8.6928e-5,
    "MEAN_MOTION_DOT": 1.058e-5,
    "MEAN_MOTION_DDOT": 0
  },
  {
    "OBJECT_NAME": "STARLINK-4331",
    "OBJECT_ID": "2022-077D",
    "EPOCH": "2024-05-21T01:13:06.428640",
    "MEAN_MOTION": 15.01254888,
    "ECCENTRICITY": 0.0001955,
    "INCLINATION": 97.6567,
    "RA_OF_ASC_NODE": 323.2689,
    "ARG_OF_PERICENTER": 90.3283,
    "MEAN_ANOMALY": 269.8165,
    "EPHEMERIS_TYPE": 0,
    "CLASSIFICATION_TYPE": "U",
    "NORAD_CAT_ID": 53046,
    "ELEMENT_SET_NO": 999,
    "REV_AT_EPOCH": 10283,
    "BSTAR": 0.00010263,
    "MEAN_MOTION_DOT": 1.259e-5,
    "MEAN_MOTION_DDOT": 0
  },
  {
    "OBJECT_NAME": "STARLINK-4352",
    "OBJECT_ID": "2022-077E",
    "EPOCH": "2024-05-20T11:55:55.788672",
    "MEAN_MOTION": 15.01263624,
    "ECCENTRICITY": 0.0001177,
    "INCLINATION": 97.6543,
    "RA_OF_ASC_NODE": 322.7621,
    "ARG_OF_PERICENTER": 88.1289,
    "MEAN_ANOMALY": 272.007,
    "EPHEMERIS_TYPE": 0,
    "CLASSIFICATION_TYPE": "U",
    "NORAD_CAT_ID": 53047,
    "ELEMENT_SET_NO": 999,
    "REV_AT_EPOCH": 10217,
    "BSTAR": 2.5163e-6,
    "MEAN_MOTION_DOT": -2.7e-7,
    "MEAN_MOTION_DDOT": 0
  },
  {
    "OBJECT_NAME": "STARLINK-4355",
    "OBJECT_ID": "2022-077F",
    "EPOCH": "2024-05-20T12:14:37.703904",
    "MEAN_MOTION": 15.0125852,
    "ECCENTRICITY": 0.0003666,
    "INCLINATION": 97.654,
    "RA_OF_ASC_NODE": 322.7499,
    "ARG_OF_PERICENTER": 90.8668,
    "MEAN_ANOMALY": 269.2976,
    "EPHEMERIS_TYPE": 0,
    "CLASSIFICATION_TYPE": "U",
    "NORAD_CAT_ID": 53048,
    "ELEMENT_SET_NO": 999,
    "REV_AT_EPOCH": 10216,
    "BSTAR": -3.6409e-5,
    "MEAN_MOTION_DOT": -5.27e-6,
    "MEAN_MOTION_DDOT": 0
  },
  {
    "OBJECT_NAME": "STARLINK-4345",
    "OBJECT_ID": "2022-077G",
    "EPOCH": "2024-05-21T02:27:24.399072",
    "MEAN_MOTION": 15.01254246,
    "ECCENTRICITY": 0.0003947,
    "INCLINATION": 97.655,
    "RA_OF_ASC_NODE": 323.3372,
    "ARG_OF_PERICENTER": 63.5496,
    "MEAN_ANOMALY": 296.6133,
    "EPHEMERIS_TYPE": 0,
    "CLASSIFICATION_TYPE": "U",
    "NORAD_CAT_ID": 53049,
    "ELEMENT_SET_NO": 999,
    "REV_AT_EPOCH": 10225,
    "BSTAR": 1.9104e-5,
    "MEAN_MOTION_DOT": 1.86e-6,
    "MEAN_MOTION_DDOT": 0
  },
  {
    "OBJECT_NAME": "STARLINK-4343",
    "OBJECT_ID": "2022-077H",
    "EPOCH": "2024-05-20T12:11:34.933344",
    "MEAN_MOTION": 15.01263408,
    "ECCENTRICITY": 0.0002883,
    "INCLINATION": 97.6554,
    "RA_OF_ASC_NODE": 322.7479,
    "ARG_OF_PERICENTER": 69.7037,
    "MEAN_ANOMALY": 290.4497,
    "EPHEMERIS_TYPE": 0,
    "CLASSIFICATION_TYPE": "U",
    "NORAD_CAT_ID": 53050,
    "ELEMENT_SET_NO": 999,
    "REV_AT_EPOCH": 10216,
    "BSTAR": 7.2833e-5,
    "MEAN_MOTION_DOT": 8.77e-6,
    "MEAN_MOTION_DDOT": 0
  },
  {
    "OBJECT_NAME": "STARLINK-4336",
    "OBJECT_ID": "2022-077J",
    "EPOCH": "2024-05-21T01:02:05.508384",
    "MEAN_MOTION": 15.01254333,
    "ECCENTRICITY": 0.0002938,
    "INCLINATION": 97.6558,
    "RA_OF_ASC_NODE": 323.258,
    "ARG_OF_PERICENTER": 74.5457,
    "MEAN_ANOMALY": 285.6092,
    "EPHEMERIS_TYPE": 0,
    "CLASSIFICATION_TYPE": "U",
    "NORAD_CAT_ID": 53051,
    "ELEMENT_SET_NO": 999,
    "REV_AT_EPOCH": 10282,
    "BSTAR": 3.8624e-5,
    "MEAN_MOTION_DOT": 4.37e-6,
    "MEAN_MOTION_DDOT": 0
  },
  {
    "OBJECT_NAME": "STARLINK-4341",
    "OBJECT_ID": "2022-077K",
    "EPOCH": "2024-05-20T12:08:55.121856",
    "MEAN_MOTION": 15.0125185,
    "ECCENTRICITY": 0.0002653,
    "INCLINATION": 97.6553,
    "RA_OF_ASC_NODE": 322.746,
    "ARG_OF_PERICENTER": 72.2051,
    "MEAN_ANOMALY": 287.9463,
    "EPHEMERIS_TYPE": 0,
    "CLASSIFICATION_TYPE": "U",
    "NORAD_CAT_ID": 53052,
    "ELEMENT_SET_NO": 999,
    "REV_AT_EPOCH": 10216,
    "BSTAR": 0.00013474,
    "MEAN_MOTION_DOT": 1.672e-5,
    "MEAN_MOTION_DDOT": 0
  },
  {
    "OBJECT_NAME": "STARLINK-4337",
    "OBJECT_ID": "2022-077L",
    "EPOCH": "2024-05-20T11:58:15.176928",
    "MEAN_MOTION": 15.01265667,
    "ECCENTRICITY": 0.0002552,
    "INCLINATION": 97.6548,
    "RA_OF_ASC_NODE": 322.7358,
    "ARG_OF_PERICENTER": 64.775,
    "MEAN_ANOMALY": 295.3739,
    "EPHEMERIS_TYPE": 0,
    "CLASSIFICATION_TYPE": "U",
    "NORAD_CAT_ID": 53053,
    "ELEMENT_SET_NO": 999,
    "REV_AT_EPOCH": 10216,
    "BSTAR": -2.1271e-5,
    "MEAN_MOTION_DOT": -3.32e-6,
    "MEAN_MOTION_DDOT": 0
  },
  {
    "OBJECT_NAME": "STARLINK-4339",
    "OBJECT_ID": "2022-077M",
    "EPOCH": "2024-05-20T12:06:15.255072",
    "MEAN_MOTION": 15.012664,
    "ECCENTRICITY": 0.0002951,
    "INCLINATION": 97.6548,
    "RA_OF_ASC_NODE": 322.7443,
    "ARG_OF_PERICENTER": 64.0695,
    "MEAN_ANOMALY": 296.0833,
    "EPHEMERIS_TYPE": 0,
    "CLASSIFICATION_TYPE": "U",
    "NORAD_CAT_ID": 53054,
    "ELEMENT_SET_NO": 999,
    "REV_AT_EPOCH": 10216,
    "BSTAR": 0.00027345,
    "MEAN_MOTION_DOT": 3.456e-5,
    "MEAN_MOTION_DDOT": 0
  },
  {
    "OBJECT_NAME": "STARLINK-4338",
    "OBJECT_ID": "2022-077N",
    "EPOCH": "2024-05-21T02:19:24.371904",
    "MEAN_MOTION": 15.0125414,
    "ECCENTRICITY": 0.000259,
    "INCLINATION": 97.6539,
    "RA_OF_ASC_NODE": 323.3224,
    "ARG_OF_PERICENTER": 82.5941,
    "MEAN_ANOMALY": 277.5577,
    "EPHEMERIS_TYPE": 0,
    "CLASSIFICATION_TYPE": "U",
    "NORAD_CAT_ID": 53055,
    "ELEMENT_SET_NO": 999,
    "REV_AT_EPOCH": 10283,
    "BSTAR": 3.6357e-5,
    "MEAN_MOTION_DOT": 4.08e-6,
    "MEAN_MOTION_DDOT": 0
  },
  {
    "OBJECT_NAME": "STARLINK-4314",
    "OBJECT_ID": "2022-077P",
    "EPOCH": "2024-05-21T02:24:44.350848",
    "MEAN_MOTION": 15.01254544,
    "ECCENTRICITY": 0.0003187,
    "INCLINATION": 97.6548,
    "RA_OF_ASC_NODE": 323.3293,
    "ARG_OF_PERICENTER": 65.2955,
    "MEAN_ANOMALY": 294.8601,
    "EPHEMERIS_TYPE": 0,
    "CLASSIFICATION_TYPE": "U",
    "NORAD_CAT_ID": 53056,
    "ELEMENT_SET_NO": 999,
    "REV_AT_EPOCH": 10283,
    "BSTAR": 2.6125e-5,
    "MEAN_MOTION_DOT": 2.76e-6,
    "MEAN_MOTION_DDOT": 0
  },
  {
    "OBJECT_NAME": "STARLINK-4252",
    "OBJECT_ID": "2022-077Q",
    "EPOCH": "2024-05-21T02:14:04.407648",
    "MEAN_MOTION": 15.01255629,
    "ECCENTRICITY": 0.0002244,
    "INCLINATION": 97.6532,
    "RA_OF_ASC_NODE": 323.3173,
    "ARG_OF_PERICENTER": 84.6099,
    "MEAN_ANOMALY": 275.5381,
    "EPHEMERIS_TYPE": 0,
    "CLASSIFICATION_TYPE": "U",
    "NORAD_CAT_ID": 53057,
    "ELEMENT_SET_NO": 999,
    "REV_AT_EPOCH": 10283,
    "BSTAR": 4.1255e-5,
    "MEAN_MOTION_DOT": 4.71e-6,
    "MEAN_MOTION_DDOT": 0
  },
  {
    "OBJECT_NAME": "STARLINK-4317",
    "OBJECT_ID": "2022-077R",
    "EPOCH": "2024-05-21T01:05:06.711648",
    "MEAN_MOTION": 15.01255591,
    "ECCENTRICITY": 0.0002979,
    "INCLINATION": 97.6553,
    "RA_OF_ASC_NODE": 323.2431,
    "ARG_OF_PERICENTER": 77.8716,
    "MEAN_ANOMALY": 282.2842,
    "EPHEMERIS_TYPE": 0,
    "CLASSIFICATION_TYPE": "U",
    "NORAD_CAT_ID": 53058,
    "ELEMENT_SET_NO": 999,
    "REV_AT_EPOCH": 10224,
    "BSTAR": 8.3488e-5,
    "MEAN_MOTION_DOT": 1.013e-5,
    "MEAN_MOTION_DDOT": 0
  }
]