STARLINK-4350           
1 53045U 22077C   24142.05237450  .00001058  00000+0  86928-4 0  9994
2 53045  97.6567 323.2656 0001880  76.6334 283.5100 15.01256825102830
STARLINK-4331           
1 53046U 22077D   24142.05076885  .00001259  00000+0  10263-3 0  9999
2 53046  97.6567 323.2689 0001955  90.3283 269.8165 15.01254888102831
STARLINK-4352           
1 53047U 22077E   24141.49717348 -.00000027  00000+0  25163-5 0  9993
2 53047  97.6543 322.7621 0001177  88.1289 272.0070 15.01263624102179
STARLINK-4355           
1 53048U 22077F   24141.51015861 -.00000527  00000+0 -36409-4 0  9998
2 53048  97.6540 322.7499 0003666  90.8668 269.2976 15.01258520102167
STARLINK-4345           
1 53049U 22077G   24142.10236573  .00000186  00000+0  19104-4 0  9992
2 53049  97.6550 323.3372 0003947  63.5496 296.6133 15.01254246102254
STARLINK-4343           
1 53050U 22077H   24141.50804321  .00000877  00000+0  72833-4 0  9994
2 53050  97.6554 322.7479 0002883  69.7037 290.4497 15.01263408102163
STARLINK-4336           
1 53051U 22077J   24142.04311931  .00000437  00000+0  38624-4 0  9997
2 53051  97.6558 323.2580 0002938  74.5457 285.6092 15.01254333102825
STARLINK-4341           
1 53052U 22077K   24141.50619354  .00001672  00000+0  13474-3 0  9995
2 53052  97.6553 322.7460 0002653  72.2051 287.9463 15.01251850102166
STARLINK-4337           
1 53053U 22077L   24141.49878677 -.00000332  00000+0 -21271-4 0  9998
2 53053  97.6548 322.7358 0002552  64.7750 295.3739 15.01265667102167
STARLINK-4339           
1 53054U 22077M   24141.50434323  .00003456  00000+0  27345-3 0  9992
2 53054  97.6548 322.7443 0002951  64.0695 296.0833 15.01266400102166
STARLINK-4338           
1 53055U 22077N   24142.09680986  .00000408  00000+0  36357-4 0  9994
2 53055  97.6539 323.3224 0002590  82.5941 277.5577 15.01254140102830
STARLINK-4314           
1 53056U 22077P   24142.10051332  .00000276  00000+0  26125-4 0  9999
2 53056  97.6548 323.3293 0003187  65.2955 294.8601 15.01254544102831
STARLINK-4252           
1 53057U 22077Q   24142.09310657  .00000471  00000+0  41255-4 0  9994
2 53057  97.6532 323.3173 0002244  84.6099 275.5381 15.01255629102835
STARLINK-4317           
1 53058U 22077R   24142.04521657  .00001013  00000+0  83488-4 0  9991
2 53058  97.6553 323.2431 0002979  77.8716 282.2842 15.01255591102240
